PANDORA
1 67395U 80229J   26080.56688657  .00000000  00000-0  37770-3 0    08
2 67395  97.8030  80.5959 0006627  66.8389  30.1666 14.87871859    06
